[{"OBJECT_NAME":"SDA_1665","OBJECT_ID":"2025-230B","EPOCH":"2026-03-09T22:47:20.541984","MEAN_MOTION":13.85178901,"ECCENTRICITY":0.00037609,"INCLINATION":81.3004,"RA_OF_ASC_NODE":303.6398,"ARG_OF_PERICENTER":117.7881,"MEAN_ANOMALY":242.3658,"EPHEMERIS_TYPE":0,"CLASSIFICATION_TYPE":"U","NORAD_CAT_ID":65975,"ELEMENT_SET_NO":999,"REV_AT_EPOCH":2008,"BSTAR":-0.026076654,"MEAN_MOTION_DOT":-0.00029429,"MEAN_MOTION_DDOT":0},{"OBJECT_NAME":"SL-16 DEB","OBJECT_ID":"2007-029D","EPOCH":"2026-03-09T14:08:41.148096","MEAN_MOTION":13.68612376,"ECCENTRICITY":0.0224528,"INCLINATION":70.9485,"RA_OF_ASC_NODE":137.4413,"ARG_OF_PERICENTER":242.2178,"MEAN_ANOMALY":239.4507,"EPHEMERIS_TYPE":0,"CLASSIFICATION_TYPE":"U","NORAD_CAT_ID":31795,"ELEMENT_SET_NO":999,"REV_AT_EPOCH":93359,"BSTAR":0.00022052,"MEAN_MOTION_DOT":1.82e-6,"MEAN_MOTION_DDOT":0}]
